{"type": "FeatureCollection", "features": [ {"type": "Feature", "properties": {"norad_id": 39122, "name": "EUTELSAT 117 WEST A", "group": "eutelsat", "lat": -0.003190454476163423, "lon": 173.23546051076647, "alt_km": 35789.78995271537, "timestamp": "2025-12-27T12:55:14.158618+00:00", "meta": {"OBJECT_NAME": "EUTELSAT 117 WEST A", "OBJECT_ID": "2013-012A", "EPOCH": "2025-12-27T05:35:55.354848", "MEAN_MOTION": 1.00270818, "ECCENTRICITY": 0.00028782, "INCLINATION": 0.0142, "RA_OF_ASC_NODE": 335.025, "ARG_OF_PERICENTER": 304.6953, "MEAN_ANOMALY": 143.4263, "EPHEMERIS_TYPE": 0, "CLASSIFICATION_TYPE": "U", "NORAD_CAT_ID": 39122, "ELEMENT_SET_NO": 999, "REV_AT_EPOCH": 4670, "BSTAR": 0, "MEAN_MOTION_DOT": 1e-07, "MEAN_MOTION_DDOT": 0}, "tle": {"line1": "1 39122U 13012A   25361.23327957  .00000010  00000+0  00000+0 0  9998", "line2": "2 39122   0.0142 335.0250 0002878 304.6953 143.4263  1.00270818 46706"}}, "geometry": {"type": "Point", "coordinates": [173.23546051076647, -0.003190454476163423]}}, {"type": "Feature", "properties": {"norad_id": 39163, "name": "EUTELSAT 7B", "group": "eutelsat", "lat": -0.08348929086348983, "lon": -62.95932794162623, "alt_km": 35767.74067697866, "timestamp": "2025-12-27T12:55:14.158631+00:00", "meta": {"OBJECT_NAME": "EUTELSAT 7B", "OBJECT_ID": "2013-022A", "EPOCH": "2025-12-27T06:13:38.544960", "MEAN_MOTION": 1.0027195, "ECCENTRICITY": 0.00047877, "INCLINATION": 0.0674, "RA_OF_ASC_NODE": 13.757, "ARG_OF_PERICENTER": 308.486, "MEAN_ANOMALY": 234.1547, "EPHEMERIS_TYPE": 0, "CLASSIFICATION_TYPE": "U", "NORAD_CAT_ID": 39163, "ELEMENT_SET_NO": 999, "REV_AT_EPOCH": 4622, "BSTAR": 0, "MEAN_MOTION_DOT": 7e-07, "MEAN_MOTION_DDOT": 0}, "tle": {"line1": "1 39163U 13022A   25361.25947390  .00000070  00000+0  00000+0 0  9991", "line2": "2 39163   0.0674  13.7570 0004787 308.4860 234.1547  1.00271950 46224"}}, "geometry": {"type": "Point", "coordinates": [-62.95932794162623, -0.08348929086348983]}}, {"type": "Feature", "properties": {"norad_id": 39612, "name": "EXPRESS-AT1", "group": "eutelsat", "lat": 0.005763908342391183, "lon": -13.935389331149862, "alt_km": 35789.19438219899, "timestamp": "2025-12-27T12:55:14.158643+00:00", "meta": {"OBJECT_NAME": "EXPRESS-AT1", "OBJECT_ID": "2014-010A", "EPOCH": "2025-12-27T04:42:15.496416", "MEAN_MOTION": 1.002729, "ECCENTRICITY": 8.928e-05, "INCLINATION": 0.0153, "RA_OF_ASC_NODE": 289.8864, "ARG_OF_PERICENTER": 213.189, "MEAN_ANOMALY": 79.4173, "EPHEMERIS_TYPE": 0, "CLASSIFICATION_TYPE": "U", "NORAD_CAT_ID": 39612, "ELEMENT_SET_NO": 999, "REV_AT_EPOCH": 4309, "BSTAR": 0, "MEAN_MOTION_DOT": 1.01e-06, "MEAN_MOTION_DDOT": 0}, "tle": {"line1": "1 39612U 14010A   25361.19601269  .00000101  00000+0  00000+0 0  9998", "line2": "2 39612   0.0153 289.8864 0000892 213.1890  79.4173  1.00272900 43098"}}, "geometry": {"type": "Point", "coordinates": [-13.935389331149862, 0.005763908342391183]}}, {"type": "Feature", "properties": {"norad_id": 39613, "name": "EXPRESS-AT2", "group": "eutelsat", "lat": 0.03225780317893505, "lon": 69.93667110060666, "alt_km": 35792.82118194914, "timestamp": "2025-12-27T12:55:14.158665+00:00", "meta": {"OBJECT_NAME": "EXPRESS-AT2", "OBJECT_ID": "2014-010B", "EPOCH": "2025-12-27T06:49:10.839936", "MEAN_MOTION": 1.00270775, "ECCENTRICITY": 0.00017046, "INCLINATION": 0.0178, "RA_OF_ASC_NODE": 328.3157, "ARG_OF_PERICENTER": 308.5849, "MEAN_ANOMALY": 61.2712, "EPHEMERIS_TYPE": 0, "CLASSIFICATION_TYPE": "U", "NORAD_CAT_ID": 39613, "ELEMENT_SET_NO": 999, "REV_AT_EPOCH": 4277, "BSTAR": 0, "MEAN_MOTION_DOT": -2.59e-06, "MEAN_MOTION_DDOT": 0}, "tle": {"line1": "1 39613U 14010B   25361.28415324 -.00000259  00000+0  00000+0 0  9999", "line2": "2 39613   0.0178 328.3157 0001704 308.5849  61.2712  1.00270775 42776"}}, "geometry": {"type": "Point", "coordinates": [69.93667110060666, 0.03225780317893505]}}, {"type": "Feature", "properties": {"norad_id": 39773, "name": "EUTELSAT 3B", "group": "eutelsat", "lat": -0.07017751759633359, "lon": -66.7994439407274, "alt_km": 35776.37851198459, "timestamp": "2025-12-27T12:55:14.158690+00:00", "meta": {"OBJECT_NAME": "EUTELSAT 3B", "OBJECT_ID": "2014-030A", "EPOCH": "2025-12-27T06:13:38.544960", "MEAN_MOTION": 1.00270423, "ECCENTRICITY": 0.00042878, "INCLINATION": 0.06, "RA_OF_ASC_NODE": 354.4554, "ARG_OF_PERICENTER": 242.3493, "MEAN_ANOMALY": 315.6906, "EPHEMERIS_TYPE": 0, "CLASSIFICATION_TYPE": "U", "NORAD_CAT_ID": 39773, "ELEMENT_SET_NO": 999, "REV_AT_EPOCH": 4234, "BSTAR": 0, "MEAN_MOTION_DOT": 4.2e-07, "MEAN_MOTION_DDOT": 0}, "tle": {"line1": "1 39773U 14030A   25361.25947390  .00000042  00000+0  00000+0 0  9997", "line2": "2 39773   0.0600 354.4554 0004287 242.3493 315.6906  1.00270423 42347"}}, "geometry": {"type": "Point", "coordinates": [-66.7994439407274, -0.07017751759633359]}}, {"type": "Feature", "properties": {"norad_id": 40425, "name": "EUTELSAT 115 WEST B", "group": "eutelsat", "lat": -0.00029728198493759485, "lon": 175.17164472474812, "alt_km": 35785.73166033374, "timestamp": "2025-12-27T12:55:14.158704+00:00", "meta": {"OBJECT_NAME": "EUTELSAT 115 WEST B", "OBJECT_ID": "2015-010B", "EPOCH": "2025-12-26T05:44:38.581152", "MEAN_MOTION": 1.00273604, "ECCENTRICITY": 7.8e-06, "INCLINATION": 0.0077, "RA_OF_ASC_NODE": 147.8651, "ARG_OF_PERICENTER": 258.8043, "MEAN_ANOMALY": 19.571, "EPHEMERIS_TYPE": 0, "CLASSIFICATION_TYPE": "U", "NORAD_CAT_ID": 40425, "ELEMENT_SET_NO": 999, "REV_AT_EPOCH": 3965, "BSTAR": 0, "MEAN_MOTION_DOT": -3e-08, "MEAN_MOTION_DDOT": 0}, "tle": {"line1": "1 40425U 15010B   25360.23933543 -.00000003  00000+0  00000+0 0  9992", "line2": "2 40425   0.0077 147.8651 0000078 258.8043  19.5710  1.00273604 39657"}}, "geometry": {"type": "Point", "coordinates": [175.17164472474812, -0.00029728198493759485]}}, {"type": "Feature", "properties": {"norad_id": 40875, "name": "EUTELSAT 8 WEST B", "group": "eutelsat", "lat": -0.08456798372074815, "lon": -77.92967772800672, "alt_km": 35768.51831499294, "timestamp": "2025-12-27T12:55:14.158716+00:00", "meta": {"OBJECT_NAME": "EUTELSAT 8 WEST B", "OBJECT_ID": "2015-039B", "EPOCH": "2025-12-27T06:06:52.392384", "MEAN_MOTION": 1.00271434, "ECCENTRICITY": 0.00041959, "INCLINATION": 0.0657, "RA_OF_ASC_NODE": 13.5765, "ARG_OF_PERICENTER": 262.8857, "MEAN_ANOMALY": 263.2409, "EPHEMERIS_TYPE": 0, "CLASSIFICATION_TYPE": "U", "NORAD_CAT_ID": 40875, "ELEMENT_SET_NO": 999, "REV_AT_EPOCH": 3793, "BSTAR": 0, "MEAN_MOTION_DOT": -4.3e-07, "MEAN_MOTION_DDOT": 0}, "tle": {"line1": "1 40875U 15039B   25361.25477306 -.00000043  00000+0  00000+0 0  9999", "line2": "2 40875   0.0657  13.5765 0004195 262.8857 263.2409  1.00271434 37938"}}, "geometry": {"type": "Point", "coordinates": [-77.92967772800672, -0.08456798372074815]}}, {"type": "Feature", "properties": {"norad_id": 41310, "name": "EUTELSAT 9B", "group": "eutelsat", "lat": -0.0432749121290733, "lon": -60.921812851363896, "alt_km": 35767.96589705411, "timestamp": "2025-12-27T12:55:14.158729+00:00", "meta": {"OBJECT_NAME": "EUTELSAT 9B", "OBJECT_ID": "2016-005A", "EPOCH": "2025-12-27T06:13:38.544960", "MEAN_MOTION": 1.00270104, "ECCENTRICITY": 0.00047693, "INCLINATION": 0.0298, "RA_OF_ASC_NODE": 51.1117, "ARG_OF_PERICENTER": 224.8876, "MEAN_ANOMALY": 282.3931, "EPHEMERIS_TYPE": 0, "CLASSIFICATION_TYPE": "U", "NORAD_CAT_ID": 41310, "ELEMENT_SET_NO": 999, "REV_AT_EPOCH": 3639, "BSTAR": 0, "MEAN_MOTION_DOT": 8.4e-07, "MEAN_MOTION_DDOT": 0}, "tle": {"line1": "1 41310U 16005A   25361.25947390  .00000084  00000+0  00000+0 0  9997", "line2": "2 41310   0.0298  51.1117 0004769 224.8876 282.3931  1.00270104 36393"}}, "geometry": {"type": "Point", "coordinates": [-60.921812851363896, -0.0432749121290733]}}, {"type": "Feature", "properties": {"norad_id": 41382, "name": "EUTELSAT 65 WEST A", "group": "eutelsat", "lat": -0.05072444455248728, "lon": -135.13649196041968, "alt_km": 35780.4716748029, "timestamp": "2025-12-27T12:55:14.158741+00:00", "meta": {"OBJECT_NAME": "EUTELSAT 65 WEST A", "OBJECT_ID": "2016-014A", "EPOCH": "2025-12-27T06:13:45.229728", "MEAN_MOTION": 1.0027075, "ECCENTRICITY": 0.00024248, "INCLINATION": 0.047, "RA_OF_ASC_NODE": 349.7088, "ARG_OF_PERICENTER": 289.8289, "MEAN_ANOMALY": 204.7118, "EPHEMERIS_TYPE": 0, "CLASSIFICATION_TYPE": "U", "NORAD_CAT_ID": 41382, "ELEMENT_SET_NO": 999, "REV_AT_EPOCH": 3581, "BSTAR": 0, "MEAN_MOTION_DOT": -2.54e-06, "MEAN_MOTION_DDOT": 0}, "tle": {"line1": "1 41382U 16014A   25361.25955127 -.00000254  00000+0  00000+0 0  9993", "line2": "2 41382   0.0470 349.7088 0002424 289.8289 204.7118  1.00270750 35810"}}, "geometry": {"type": "Point", "coordinates": [-135.13649196041968, -0.05072444455248728]}}, {"type": "Feature", "properties": {"norad_id": 41589, "name": "EUTELSAT 117 WEST B", "group": "eutelsat", "lat": -0.0006624642253536949, "lon": 173.066099365818, "alt_km": 35785.942162334606, "timestamp": "2025-12-27T12:55:14.158753+00:00", "meta": {"OBJECT_NAME": "EUTELSAT 117 WEST B", "OBJECT_ID": "2016-038B", "EPOCH": "2025-12-27T05:35:47.867424", "MEAN_MOTION": 1.00273402, "ECCENTRICITY": 7.7e-06, "INCLINATION": 0.0096, "RA_OF_ASC_NODE": 156.0501, "ARG_OF_PERICENTER": 198.0121, "MEAN_ANOMALY": 68.8491, "EPHEMERIS_TYPE": 0, "CLASSIFICATION_TYPE": "U", "NORAD_CAT_ID": 41589, "ELEMENT_SET_NO": 999, "REV_AT_EPOCH": 3493, "BSTAR": 0, "MEAN_MOTION_DOT": 1.1e-07, "MEAN_MOTION_DDOT": 0}, "tle": {"line1": "1 41589U 16038B   25361.23319291  .00000011  00000+0  00000+0 0  9992", "line2": "2 41589   0.0096 156.0501 0000077 198.0121  68.8491  1.00273402 34932"}}, "geometry": {"type": "Point", "coordinates": [173.066099365818, -0.0006624642253536949]}}]}